GSAT0101 (PRN E11)      
1 37846U 11060A   23134.67265558 -.00000099  00000+0  00000+0 0  9990
2 37846  57.0882  12.3471 0004221  32.7232 327.3446  1.70475905 71865
GSAT0102 (PRN E12)      
1 37847U 11060B   23140.17049304 -.00000104  00000+0  00000+0 0  9999
2 37847  57.0890  12.1981 0004082  10.2361 170.4860  1.70475414 71961
GSAT0103 (PRN E19)      
1 38857U 12055A   23141.16388662  .00000039  00000+0  00000+0 0  9995
2 38857  55.2477 132.4110 0005825 271.9943  87.9181  1.70473717 65866
GSAT0104 (PRN E20)      
1 38858U 12055B   23139.96034207  .00000042  00000+0  00000+0 0  9998
2 38858  55.2473 132.4456 0003308 273.1308  86.8166  1.70473931 65846
GSAT0201 (PRN E18)      
1 40128U 14050A   23137.38786739 -.00000105  00000+0  00000+0 0  9997
2 40128  50.0334 318.9596 1612379 136.1593 237.8415  1.85519013 57410
GSAT0202 (PRN E14)      
1 40129U 14050B   23141.42061487 -.00000103  00000+0  00000+0 0  9992
2 40129  50.0505 317.8680 1609944 137.1254 236.6319  1.85519827 59653
GSAT0203 (PRN E26)      
1 40544U 15017A   23142.07779957 -.00000102  00000+0  00000+0 0  9996
2 40544  56.8850  12.1335 0001495 291.4476  68.5851  1.70475880 50736
GSAT0204 (PRN E22)      
1 40545U 15017B   23141.15802146 -.00000103  00000+0  00000+0 0  9993
2 40545  56.8911  12.1724 0000907 260.6610  99.3778  1.70475680 13100
GSAT0205 (PRN E24)      
1 40889U 15045A   23136.81982056 -.00000042  00000+0  00000+0 0  9993
2 40889  55.4216 252.7514 0004151  32.3239 327.6795  1.70473921 47793
GSAT0206 (PRN E30)      
1 40890U 15045B   23142.31982464 -.00000021  00000+0  00000+0 0  9997
2 40890  55.4164 252.5953 0002025  24.5407 335.4811  1.70474095 47913
GSAT0209 (PRN E09)      
1 41174U 15079A   23138.97206567  .00000047  00000+0  00000+0 0  9997
2 41174  55.2640 132.1773 0005539 304.1563  55.7823  1.70474431 45593
GSAT0208 (PRN E08)      
1 41175U 15079B   23140.95136029  .00000039  00000+0  00000+0 0  9995
2 41175  55.2632 132.1211 0004878 303.4172  56.5155  1.70474380 46046
GSAT0211 (PRN E02)      
1 41549U 16030A   23138.13937197 -.00000036  00000+0  00000+0 0  9998
2 41549  55.5672 252.6791 0002520 341.5793  18.3950  1.70474023 43470
GSAT0210 (PRN E01)      
1 41550U 16030B   23141.36386018 -.00000022  00000+0  00000+0 0  9994
2 41550  55.5643 252.5917 0001917 278.4894  81.4952  1.70474087 43527
GSAT0207 (PRN E07)      
1 41859U 16069A   23141.61229350  .00000039  00000+0  00000+0 0  9998
2 41859  54.9274 132.2025 0005837 292.8178  67.0978  1.70474446 40261
GSAT0212 (PRN E03)      
1 41860U 16069B   23140.88051051  .00000039  00000+0  00000+0 0  9999
2 41860  54.9249 132.2200 0004257 310.2578  49.6849  1.70474581 40504
GSAT0213 (PRN E04)      
1 41861U 16069C   23141.24574988  .00000038  00000+0  00000+0 0  9999
2 41861  54.9270 132.2157 0005789 278.2205  81.6923  1.70473238 40373
GSAT0214 (PRN E05)      
1 41862U 16069D   23140.80631716  .00000039  00000+0  00000+0 0  9995
2 41862  54.9251 132.2218 0004836 280.9471  78.9787  1.70473164 40496
GSAT0215 (PRN E21)      
1 43055U 17079A   23137.19000844 -.00000040  00000+0  00000+0 0  9996
2 43055  55.5431 252.5327 0001331 267.3382  92.6260  1.70474701 33773
GSAT0216 (PRN E25)      
1 43056U 17079B   23141.00152977 -.00000023  00000+0  00000+0 0  9998
2 43056  55.5417 252.4278 0003198 275.0994  84.8683  1.70474892 33852
GSAT0217 (PRN E27)      
1 43057U 17079C   23139.46209476 -.00000029  00000+0  00000+0 0  9999
2 43057  55.5406 252.4694 0002533 297.9718  61.9952  1.70474808 33810
GSAT0218 (PRN E31)      
1 43058U 17079D   23140.26872035 -.00000026  00000+0  00000+0 0  9994
2 43058  55.5402 252.4447 0003559 271.4297  88.5283  1.70474779 33821
GSAT0221 (PRN E15)      
1 43564U 18060A   23141.34121241 -.00000103  00000+0  00000+0 0  9999
2 43564  57.2659  12.0550 0002650 316.3181  43.7104  1.70475679 30027
GSAT0222 (PRN E33)      
1 43565U 18060B   23142.14770897 -.00000102  00000+0  00000+0 0  9995
2 43565  57.2683  12.0341 0002631 331.6489  28.3859  1.70475641 30084
GSAT0219 (PRN E36)      
1 43566U 18060C   23141.19504613 -.00000103  00000+0  00000+0 0  9992
2 43566  57.2685  12.0619 0002381 339.2130  20.8269  1.70475662 30045
GSAT0220 (PRN E13)      
1 43567U 18060D   23141.41539597 -.00000103  00000+0  00000+0 0  9997
2 43567  57.2687  12.0560 0002585 325.4805  34.5522  1.70475703 30034
GSAT0223 (PRN E34)      
1 49809U 21116A   23140.97272934 -.00000103  00000+0  00000+0 0  9997
2 49809  57.2601  11.9645 0001179 116.0542  62.5205  1.70475709  9038
GSAT0224 (PRN E10)      
1 49810U 21116B   23141.37383809 -.00000103  00000+0  00000+0 0  9998
2 49810  57.2609  11.9519 0001267  82.2943  94.9297  1.70475814  9065
